{
  "norad_id": 53992,
  "name": "STARLINK-5108",
  "history": [
    {
      "epoch": "2026-03-28T20:09:46.996128",
      "apogee_km": 540.6556685317619,
      "perigee_km": 538.8278266090792,
      "latitude_deg": 21.12362101104461,
      "longitude_deg": 19.85221792012453,
      "semi_major_axis_km": 6917.87874757042,
      "eccentricity": 0.00013211,
      "inclination_deg": 53.217,
      "raan_deg": 128.149,
      "arg_perigee_deg": 88.0275,
      "mean_anomaly_deg": 272.0869,
      "mean_motion_rev_day": 15.08840537
    }
  ]
}